SL-14 R/B               
1 21423U 91042B   25359.74771196  .00000500  00000+0  60256-4 0  9991
2 21423  82.4936 289.5259 0018392 121.2399 239.0620 14.81750534842123
ERS-1                   
1 21574U 91050A   25359.66663520  .00000344  00000+0  12472-3 0  9991
2 21574  98.7902  11.0445 0032907  62.8722 297.5815 14.39374505805088
ARIANE 40 R/B           
1 21610U 91050F   25359.75479466  .00000336  00000+0  11341-3 0  9991
2 21610  98.2148  49.7146 0002071 311.6925  48.4088 14.42823498808331
INTERCOSMOS 25          
1 21819U 91086A   25359.43231353  .00001948  00000+0  38795-3 0  9999
2 21819  82.6084 354.8977 1486319 277.0250  66.4633 12.11777923487691
SL-8 R/B                
1 21876U 92008B   25359.35302744  .00000135  00000+0  12292-3 0  9992
2 21876  82.9273 323.0642 0034380 344.7101 179.5977 13.75961773699193
SL-8 R/B                
1 21938U 92020B   25359.14599198  .00000139  00000+0  12814-3 0  9997
2 21938  82.9292 209.1048 0029677 143.8949 336.0630 13.75530328690889
USA 81                  
1 21949U 92023A   25359.53890301  .00000211  00000+0  70747-4 0  9996
2 21949  85.0079 174.1942 0001080  88.7710 271.3607 14.32331531 84176
COSMOS 2219             
1 22219U 92076A   25359.74065374  .00000357  00000+0  21206-3 0  9998
2 22219  71.0580 172.6546 0019408 308.9805  50.9588 14.14068360707928
SL-16 R/B               
1 22220U 92076B   25359.43552603  .00000046  00000+0  46899-4 0  9993
2 22220  71.0010 344.7878 0014155 217.1905 256.1688 14.16845547711315
COSMOS 2221             
1 22236U 92080A   25359.05988739  .00002138  00000+0  18883-3 0  9991
2 22236  82.5038 350.5320 0016311  84.1377 276.1703 14.95807334769634
SL-16 R/B               
1 22285U 92093B   25359.74753240 -.00000079  00000+0 -15924-4 0  9990
2 22285  71.0208 159.4899 0002573  30.1802 329.9469 14.15435376702690
COSMOS 2228             
1 22286U 92094A   25359.72662507  .00002675  00000+0  23085-3 0  9993
2 22286  82.5190 308.1081 0017603 185.2222 174.8820 14.96788007764992
