CCSDS_OMM_VERS = 2.0
CREATION_DATE  = 
ORIGINATOR     = 

OBJECT_NAME    = SL-14 R/B
OBJECT_ID      = 1991-042B
CENTER_NAME    = EARTH
REF_FRAME      = TEME
TIME_SYSTEM    = UTC
MEAN_ELEMENT_THEORY = SGP/SGP4

EPOCH          = 2025-12-25T17:56:42.313344
MEAN_MOTION    = 14.81750534
ECCENTRICITY   = .0018392
INCLINATION    = 82.4936
RA_OF_ASC_NODE = 289.5259
ARG_OF_PERICENTER = 121.2399
MEAN_ANOMALY   = 239.0620

EPHEMERIS_TYPE = 0
CLASSIFICATION_TYPE = U
NORAD_CAT_ID   = 21423
ELEMENT_SET_NO = 999
REV_AT_EPOCH   = 84212
BSTAR          = .60256E-4
MEAN_MOTION_DOT = .5E-5
MEAN_MOTION_DDOT = 0

CCSDS_OMM_VERS = 2.0
CREATION_DATE  = 
ORIGINATOR     = 

OBJECT_NAME    = ERS-1
OBJECT_ID      = 1991-050A
CENTER_NAME    = EARTH
REF_FRAME      = TEME
TIME_SYSTEM    = UTC
MEAN_ELEMENT_THEORY = SGP/SGP4

EPOCH          = 2025-12-25T15:59:57.281280
MEAN_MOTION    = 14.39374505
ECCENTRICITY   = .0032907
INCLINATION    = 98.7902
RA_OF_ASC_NODE = 11.0445
ARG_OF_PERICENTER = 62.8722
MEAN_ANOMALY   = 297.5815

EPHEMERIS_TYPE = 0
CLASSIFICATION_TYPE = U
NORAD_CAT_ID   = 21574
ELEMENT_SET_NO = 999
REV_AT_EPOCH   = 80508
BSTAR          = .12472E-3
MEAN_MOTION_DOT = .344E-5
MEAN_MOTION_DDOT = 0

CCSDS_OMM_VERS = 2.0
CREATION_DATE  = 
ORIGINATOR     = 

OBJECT_NAME    = ARIANE 40 R/B
OBJECT_ID      = 1991-050F
CENTER_NAME    = EARTH
REF_FRAME      = TEME
TIME_SYSTEM    = UTC
MEAN_ELEMENT_THEORY = SGP/SGP4

EPOCH          = 2025-12-25T18:06:54.258624
MEAN_MOTION    = 14.42823498
ECCENTRICITY   = .0002071
INCLINATION    = 98.2148
RA_OF_ASC_NODE = 49.7146
ARG_OF_PERICENTER = 311.6925
MEAN_ANOMALY   = 48.4088

EPHEMERIS_TYPE = 0
CLASSIFICATION_TYPE = U
NORAD_CAT_ID   = 21610
ELEMENT_SET_NO = 999
REV_AT_EPOCH   = 80833
BSTAR          = .11341E-3
MEAN_MOTION_DOT = .336E-5
MEAN_MOTION_DDOT = 0

CCSDS_OMM_VERS = 2.0
CREATION_DATE  = 
ORIGINATOR     = 

OBJECT_NAME    = INTERCOSMOS 25
OBJECT_ID      = 1991-086A
CENTER_NAME    = EARTH
REF_FRAME      = TEME
TIME_SYSTEM    = UTC
MEAN_ELEMENT_THEORY = SGP/SGP4

EPOCH          = 2025-12-25T10:22:31.888992
MEAN_MOTION    = 12.11777923
ECCENTRICITY   = .1486319
INCLINATION    = 82.6084
RA_OF_ASC_NODE = 354.8977
ARG_OF_PERICENTER = 277.0250
MEAN_ANOMALY   = 66.4633

EPHEMERIS_TYPE = 0
CLASSIFICATION_TYPE = U
NORAD_CAT_ID   = 21819
ELEMENT_SET_NO = 999
REV_AT_EPOCH   = 48769
BSTAR          = .38795E-3
MEAN_MOTION_DOT = .1948E-4
MEAN_MOTION_DDOT = 0

CCSDS_OMM_VERS = 2.0
CREATION_DATE  = 
ORIGINATOR     = 

OBJECT_NAME    = SL-8 R/B
OBJECT_ID      = 1992-008B
CENTER_NAME    = EARTH
REF_FRAME      = TEME
TIME_SYSTEM    = UTC
MEAN_ELEMENT_THEORY = SGP/SGP4

EPOCH          = 2025-12-25T08:28:21.570816
MEAN_MOTION    = 13.75961773
ECCENTRICITY   = .003438
INCLINATION    = 82.9273
RA_OF_ASC_NODE = 323.0642
ARG_OF_PERICENTER = 344.7101
MEAN_ANOMALY   = 179.5977

EPHEMERIS_TYPE = 0
CLASSIFICATION_TYPE = U
NORAD_CAT_ID   = 21876
ELEMENT_SET_NO = 999
REV_AT_EPOCH   = 69919
BSTAR          = .12292E-3
MEAN_MOTION_DOT = .135E-5
MEAN_MOTION_DDOT = 0

CCSDS_OMM_VERS = 2.0
CREATION_DATE  = 
ORIGINATOR     = 

OBJECT_NAME    = SL-8 R/B
OBJECT_ID      = 1992-020B
CENTER_NAME    = EARTH
REF_FRAME      = TEME
TIME_SYSTEM    = UTC
MEAN_ELEMENT_THEORY = SGP/SGP4

EPOCH          = 2025-12-25T03:30:13.707072
MEAN_MOTION    = 13.75530328
ECCENTRICITY   = .00296779
INCLINATION    = 82.9292
RA_OF_ASC_NODE = 209.1048
ARG_OF_PERICENTER = 143.8949
MEAN_ANOMALY   = 336.0630

EPHEMERIS_TYPE = 0
CLASSIFICATION_TYPE = U
NORAD_CAT_ID   = 21938
ELEMENT_SET_NO = 999
REV_AT_EPOCH   = 69088
BSTAR          = .12814068E-3
MEAN_MOTION_DOT = .139E-5
MEAN_MOTION_DDOT = 0

CCSDS_OMM_VERS = 2.0
CREATION_DATE  = 
ORIGINATOR     = 

OBJECT_NAME    = USA 81
OBJECT_ID      = 1992-023A
CENTER_NAME    = EARTH
REF_FRAME      = TEME
TIME_SYSTEM    = UTC
MEAN_ELEMENT_THEORY = SGP/SGP4

EPOCH          = 2025-12-25T12:56:01.220064
MEAN_MOTION    = 14.32331531
ECCENTRICITY   = .000108
INCLINATION    = 85.0079
RA_OF_ASC_NODE = 174.1942
ARG_OF_PERICENTER = 88.7710
MEAN_ANOMALY   = 271.3607

EPHEMERIS_TYPE = 0
CLASSIFICATION_TYPE = U
NORAD_CAT_ID   = 21949
ELEMENT_SET_NO = 999
REV_AT_EPOCH   = 8417
BSTAR          = .70747E-4
MEAN_MOTION_DOT = .211E-5
MEAN_MOTION_DDOT = 0

CCSDS_OMM_VERS = 2.0
CREATION_DATE  = 
ORIGINATOR     = 

OBJECT_NAME    = COSMOS 2219
OBJECT_ID      = 1992-076A
CENTER_NAME    = EARTH
REF_FRAME      = TEME
TIME_SYSTEM    = UTC
MEAN_ELEMENT_THEORY = SGP/SGP4

EPOCH          = 2025-12-25T17:46:32.483136
MEAN_MOTION    = 14.14068360
ECCENTRICITY   = .0019408
INCLINATION    = 71.0580
RA_OF_ASC_NODE = 172.6546
ARG_OF_PERICENTER = 308.9805
MEAN_ANOMALY   = 50.9588

EPHEMERIS_TYPE = 0
CLASSIFICATION_TYPE = U
NORAD_CAT_ID   = 22219
ELEMENT_SET_NO = 999
REV_AT_EPOCH   = 70792
BSTAR          = .21206E-3
MEAN_MOTION_DOT = .357E-5
MEAN_MOTION_DDOT = 0

CCSDS_OMM_VERS = 2.0
CREATION_DATE  = 
ORIGINATOR     = 

OBJECT_NAME    = SL-16 R/B
OBJECT_ID      = 1992-076B
CENTER_NAME    = EARTH
REF_FRAME      = TEME
TIME_SYSTEM    = UTC
MEAN_ELEMENT_THEORY = SGP/SGP4

EPOCH          = 2025-12-25T10:27:09.448992
MEAN_MOTION    = 14.16845547
ECCENTRICITY   = .0014155
INCLINATION    = 71.0010
RA_OF_ASC_NODE = 344.7878
ARG_OF_PERICENTER = 217.1905
MEAN_ANOMALY   = 256.1688

EPHEMERIS_TYPE = 0
CLASSIFICATION_TYPE = U
NORAD_CAT_ID   = 22220
ELEMENT_SET_NO = 999
REV_AT_EPOCH   = 71131
BSTAR          = .46899E-4
MEAN_MOTION_DOT = .46E-6
MEAN_MOTION_DDOT = 0

CCSDS_OMM_VERS = 2.0
CREATION_DATE  = 
ORIGINATOR     = 

OBJECT_NAME    = COSMOS 2221
OBJECT_ID      = 1992-080A
CENTER_NAME    = EARTH
REF_FRAME      = TEME
TIME_SYSTEM    = UTC
MEAN_ELEMENT_THEORY = SGP/SGP4

EPOCH          = 2025-12-25T01:26:14.270496
MEAN_MOTION    = 14.95807334
ECCENTRICITY   = .00163112
INCLINATION    = 82.5038
RA_OF_ASC_NODE = 350.5320
ARG_OF_PERICENTER = 84.1377
MEAN_ANOMALY   = 276.1703

EPHEMERIS_TYPE = 0
CLASSIFICATION_TYPE = U
NORAD_CAT_ID   = 22236
ELEMENT_SET_NO = 999
REV_AT_EPOCH   = 76963
BSTAR          = .18883285E-3
MEAN_MOTION_DOT = .2138E-4
MEAN_MOTION_DDOT = 0

CCSDS_OMM_VERS = 2.0
CREATION_DATE  = 
ORIGINATOR     = 

OBJECT_NAME    = SL-16 R/B
OBJECT_ID      = 1992-093B
CENTER_NAME    = EARTH
REF_FRAME      = TEME
TIME_SYSTEM    = UTC
MEAN_ELEMENT_THEORY = SGP/SGP4

EPOCH          = 2025-12-25T17:56:26.799360
MEAN_MOTION    = 14.15435376
ECCENTRICITY   = .0002573
INCLINATION    = 71.0208
RA_OF_ASC_NODE = 159.4899
ARG_OF_PERICENTER = 30.1802
MEAN_ANOMALY   = 329.9469

EPHEMERIS_TYPE = 0
CLASSIFICATION_TYPE = U
NORAD_CAT_ID   = 22285
ELEMENT_SET_NO = 999
REV_AT_EPOCH   = 70269
BSTAR          = -.15924E-4
MEAN_MOTION_DOT = -.79E-6
MEAN_MOTION_DDOT = 0

CCSDS_OMM_VERS = 2.0
CREATION_DATE  = 
ORIGINATOR     = 

OBJECT_NAME    = COSMOS 2228
OBJECT_ID      = 1992-094A
CENTER_NAME    = EARTH
REF_FRAME      = TEME
TIME_SYSTEM    = UTC
MEAN_ELEMENT_THEORY = SGP/SGP4

EPOCH          = 2025-12-25T17:26:20.406048
MEAN_MOTION    = 14.96788007
ECCENTRICITY   = .0017603
INCLINATION    = 82.5190
RA_OF_ASC_NODE = 308.1081
ARG_OF_PERICENTER = 185.2222
MEAN_ANOMALY   = 174.8820

EPHEMERIS_TYPE = 0
CLASSIFICATION_TYPE = U
NORAD_CAT_ID   = 22286
ELEMENT_SET_NO = 999
REV_AT_EPOCH   = 76499
BSTAR          = .23085E-3
MEAN_MOTION_DOT = .2675E-4
MEAN_MOTION_DDOT = 0

